ONEWEB-0628             
1 55169U 23004AF  26013.49109988 -.00000137  00000+0 -41571-3 0  9998
2 55169  87.8929  21.3675 0002473  91.7120 268.4292 13.12440622147742
ONEWEB-0629             
1 55170U 23004AG  26013.50745969  .00000094  00000+0  20805-3 0  9994
2 55170  87.9086  36.6204 0002085  87.0201 273.1169 13.17649875147217
ONEWEB-0631             
1 55171U 23004AH  26013.46483646  .00000062  00000+0  12354-3 0  9996
2 55171  87.9187   6.1523 0001606 105.7801 254.3509 13.18685496149286
ONEWEB-0709             
1 55172U 23004AJ  26013.55079912  .00000639  00000+0  17659-2 0  9996
2 55172  87.8824  51.8701 0001104 118.3644 241.7595 13.11416546145605
ONEWEB-0710             
1 55173U 23004AK  26013.52180441  .00000044  00000+0  79087-4 0  9999
2 55173  87.9087  36.6120 0001936  97.1680 262.9672 13.17650502147219
ONEWEB-0711             
1 55174U 23004AL  26013.52195525 -.00000709  00000+0 -20365-2 0  9992
2 55174  87.8836  51.8528 0002517 105.8139 254.3267 13.11418211145568
ONEWEB-0713             
1 55175U 23004AM  26013.54062164  .00000400  00000+0  10938-2 0  9998
2 55175  87.8832  51.8498 0002237 103.0365 257.1013 13.11418821145557
ONEWEB-0715             
1 55176U 23004AN  26013.53553330  .00000203  00000+0  53645-3 0  9992
2 55176  87.8832  51.8517 0001525 120.7061 239.4217 13.11419136145591
